start=new Date('2022-07-28T00:00:00.000Z').valueOf();
sats=[{"NORAD_CAT_ID":"46690","GP_ID":"208997787","ELEMENT_SET_NO":"999","REF_FRAME":"TEME","RA_OF_ASC_NODE":"41.3993","SEMIMAJOR_AXIS":"6925.329","DECAY_DATE":null,"REV_AT_EPOCH":"9817","BSTAR":"0.00015265000000","MEAN_ELEMENT_THEORY":"SGP4","EPOCH":"2022-07-27T18:48:26.486496","MEAN_MOTION_DOT":"0.00001993","OBJECT_ID":"2020-073W","SITE":"AFETR","PERIOD":"95.592","TLE_LINE1":"1 46690U 20073W   22208.78363989  .00001993  00000-0  15265-3 0  9998","MEAN_MOTION":"15.06406397","RCS_SIZE":"LARGE","ARG_OF_PERICENTER":"109.1558","CENTER_NAME":"EARTH","LAUNCH_DATE":"2020-10-18","MEAN_ANOMALY":"250.9553","EPHEMERIS_TYPE":"0","TLE_LINE2":"2 46690  53.0560  41.3993 0001135 109.1558 250.9553 15.06406397 98179","ECCENTRICITY":"0.00011350","TIME_SYSTEM":"UTC","MEAN_MOTION_DDOT":"0.0000000000000","FILE":"3523323","APOAPSIS":"547.980","INCLINATION":"53.0560","OBJECT_NAME":"STARLINK-1789","COUNTRY_CODE":"US","CLASSIFICATION_TYPE":"U","OBJECT_TYPE":"PAYLOAD","PERIAPSIS":"546.408"},{"SEMIMAJOR_AXIS":"6925.221","RA_OF_ASC_NODE":"51.1056","REF_FRAME":"TEME","ELEMENT_SET_NO":"999","NORAD_CAT_ID":"46691","GP_ID":"208999031","SITE":"AFETR","MEAN_MOTION_DOT":"-0.00008528","EPOCH":"2022-07-27T20:22:37.507872","OBJECT_ID":"2020-073X","BSTAR":"-0.00055363000000","MEAN_ELEMENT_THEORY":"SGP4","REV_AT_EPOCH":"9804","DECAY_DATE":null,"TLE_LINE1":"1 46691U 20073X   22208.84904523 -.00008528  00000-0 -55363-3 0  9997","PERIOD":"95.589","RCS_SIZE":"LARGE","ARG_OF_PERICENTER":"69.1043","MEAN_MOTION":"15.06441775","LAUNCH_DATE":"2020-10-18","CENTER_NAME":"EARTH","MEAN_MOTION_DDOT":"0.0000000000000","TIME_SYSTEM":"UTC","ECCENTRICITY":"0.00017500","TLE_LINE2":"2 46691  53.0552  51.1056 0001750  69.1043 291.0134 15.06441775 98043","EPHEMERIS_TYPE":"0","MEAN_ANOMALY":"291.0134","INCLINATION":"53.0552","APOAPSIS":"548.297","FILE":"3523323","PERIAPSIS":"545.874","COUNTRY_CODE":"US","OBJECT_TYPE":"PAYLOAD","CLASSIFICATION_TYPE":"U","OBJECT_NAME":"STARLINK-1790"},{"PERIOD":"95.593","TLE_LINE1":"1 46692U 20073Y   22208.90115167  .00000447  00000-0  48903-4 0  9996","RCS_SIZE":"LARGE","ARG_OF_PERICENTER":"86.0723","MEAN_MOTION":"15.06387416","GP_ID":"208975120","NORAD_CAT_ID":"46692","ELEMENT_SET_NO":"999","REF_FRAME":"TEME","RA_OF_ASC_NODE":"65.8611","SEMIMAJOR_AXIS":"6925.387","DECAY_DATE":null,"REV_AT_EPOCH":"9831","BSTAR":"0.00004890300000","MEAN_ELEMENT_THEORY":"SGP4","MEAN_MOTION_DOT":"0.00000447","OBJECT_ID":"2020-073Y","EPOCH":"2022-07-27T21:37:39.504288","SITE":"AFETR","FILE":"3523230","APOAPSIS":"548.404","INCLINATION":"53.0556","OBJECT_NAME":"STARLINK-1791","CLASSIFICATION_TYPE":"U","COUNTRY_CODE":"US","OBJECT_TYPE":"PAYLOAD","PERIAPSIS":"546.100","CENTER_NAME":"EARTH","LAUNCH_DATE":"2020-10-18","MEAN_ANOMALY":"274.0456","EPHEMERIS_TYPE":"0","ECCENTRICITY":"0.00016630","TLE_LINE2":"2 46692  53.0556  65.8611 0001663  86.0723 274.0456 15.06387416 98312","TIME_SYSTEM":"UTC","MEAN_MOTION_DDOT":"0.0000000000000"},{"MEAN_ANOMALY":"266.6049","EPHEMERIS_TYPE":"0","TLE_LINE2":"2 46693  53.0559  51.0978 0001466  93.5107 266.6049 15.06402903 98043","ECCENTRICITY":"0.00014660","MEAN_MOTION_DDOT":"0.0000000000000","TIME_SYSTEM":"UTC","CENTER_NAME":"EARTH","LAUNCH_DATE":"2020-10-18","OBJECT_NAME":"STARLINK-1792","PERIAPSIS":"546.189","COUNTRY_CODE":"US","CLASSIFICATION_TYPE":"U","OBJECT_TYPE":"PAYLOAD","FILE":"3523323","APOAPSIS":"548.220","INCLINATION":"53.0559","DECAY_DATE":null,"BSTAR":"0.00004446800000","MEAN_ELEMENT_THEORY":"SGP4","REV_AT_EPOCH":"9804","EPOCH":"2022-07-27T20:27:57.657024","MEAN_MOTION_DOT":"0.00000381","OBJECT_ID":"2020-073Z","SITE":"AFETR","GP_ID":"208997537","NORAD_CAT_ID":"46693","REF_FRAME":"TEME","ELEMENT_SET_NO":"999","SEMIMAJOR_AXIS":"6925.340","RA_OF_ASC_NODE":"51.0978","ARG_OF_PERICENTER":"93.5107","RCS_SIZE":"LARGE","MEAN_MOTION":"15.06402903","PERIOD":"95.592","TLE_LINE1":"1 46693U 20073Z   22208.85275066  .00000381  00000-0  44468-4 0  9995"},{"REF_FRAME":"TEME","ELEMENT_SET_NO":"999","SEMIMAJOR_AXIS":"6925.368","RA_OF_ASC_NODE":"31.2922","NORAD_CAT_ID":"46694","GP_ID":"208998280","MEAN_MOTION_DOT":"0.00000446","OBJECT_ID":"2020-073AA","EPOCH":"2022-07-27T19:26:55.583520","SITE":"AFETR","DECAY_DATE":null,"MEAN_ELEMENT_THEORY":"SGP4","BSTAR":"0.00004886000000","REV_AT_EPOCH":"9832","TLE_LINE1":"1 46694U 20073AA  22208.81036555  .00000446  00000-0  48860-4 0  9992","PERIOD":"95.593","ARG_OF_PERICENTER":"113.1945","RCS_SIZE":"LARGE","MEAN_MOTION":"15.06393585","CENTER_NAME":"EARTH","LAUNCH_DATE":"2020-10-18","ECCENTRICITY":"0.00015680","TLE_LINE2":"2 46694  53.0548  31.2922 0001568 113.1945 246.9209 15.06393585 98328","MEAN_MOTION_DDOT":"0.0000000000000","TIME_SYSTEM":"UTC","MEAN_ANOMALY":"246.9209","EPHEMERIS_TYPE":"0","APOAPSIS":"548.319","INCLINATION":"53.0548","FILE":"3523323","PERIAPSIS":"546.147","CLASSIFICATION_TYPE":"U","COUNTRY_CODE":"US","OBJECT_TYPE":"PAYLOAD","OBJECT_NAME":"STARLINK-1793"},{"EPOCH":"2022-07-27T19:53:27.975264","MEAN_MOTION_DOT":"0.00004849","OBJECT_ID":"2020-073AC","SITE":"AFETR","DECAY_DATE":null,"REV_AT_EPOCH":"9880","MEAN_ELEMENT_THEORY":"SGP4","BSTAR":"0.00034407000000","ELEMENT_SET_NO":"999","REF_FRAME":"TEME","RA_OF_ASC_NODE":"31.2050","SEMIMAJOR_AXIS":"6925.317","GP_ID":"208974791","NORAD_CAT_ID":"46696","ARG_OF_PERICENTER":"70.0543","RCS_SIZE":"LARGE","MEAN_MOTION":"15.06410432","TLE_LINE1":"1 46696U 20073AC  22208.82879601  .00004849  00000-0  34407-3 0  9994","PERIOD":"95.591","TLE_LINE2":"2 46696  53.0546  31.2050 0001320  70.0543 290.0588 15.06410432 98805","ECCENTRICITY":"0.00013200","TIME_SYSTEM":"UTC","MEAN_MOTION_DDOT":"0.0000000000000","MEAN_ANOMALY":"290.0588","EPHEMERIS_TYPE":"0","CENTER_NAME":"EARTH","LAUNCH_DATE":"2020-10-18","OBJECT_TYPE":"PAYLOAD","COUNTRY_CODE":"US","CLASSIFICATION_TYPE":"U","PERIAPSIS":"546.267","OBJECT_NAME":"STARLINK-1795","APOAPSIS":"548.096","INCLINATION":"53.0546","FILE":"3523230"},{"PERIOD":"95.592","TLE_LINE1":"1 46698U 20073AE  22208.81862881  .00000138  00000-0  28149-4 0  9991","ARG_OF_PERICENTER":"90.9187","RCS_SIZE":"LARGE","MEAN_MOTION":"15.06396470","GP_ID":"208999280","NORAD_CAT_ID":"46698","SEMIMAJOR_AXIS":"6925.359","RA_OF_ASC_NODE":"51.2258","REF_FRAME":"TEME","ELEMENT_SET_NO":"999","BSTAR":"0.00002814900000","MEAN_ELEMENT_THEORY":"SGP4","REV_AT_EPOCH":"9804","DECAY_DATE":null,"SITE":"AFETR","MEAN_MOTION_DOT":"0.00000138","EPOCH":"2022-07-27T19:38:49.529184","OBJECT_ID":"2020-073AE","FILE":"3523323","INCLINATION":"53.0558","APOAPSIS":"548.130","OBJECT_NAME":"STARLINK-1797","PERIAPSIS":"546.319","OBJECT_TYPE":"PAYLOAD","COUNTRY_CODE":"US","CLASSIFICATION_TYPE":"U","LAUNCH_DATE":"2020-10-18","CENTER_NAME":"EARTH","EPHEMERIS_TYPE":"0","MEAN_ANOMALY":"269.1952","MEAN_MOTION_DDOT":"0.0000000000000","TIME_SYSTEM":"UTC","TLE_LINE2":"2 46698  53.0558  51.2258 0001308  90.9187 269.1952 15.06396470 98046","ECCENTRICITY":"0.00013080"},{"APOAPSIS":"548.163","INCLINATION":"53.0548","FILE":"3523323","CLASSIFICATION_TYPE":"U","COUNTRY_CODE":"US","OBJECT_TYPE":"PAYLOAD","PERIAPSIS":"546.217","OBJECT_NAME":"STARLINK-1799","CENTER_NAME":"EARTH","LAUNCH_DATE":"2020-10-18","TLE_LINE2":"2 46699  53.0548  51.2248 0001405  78.4956 281.6191 15.06407731 98045","ECCENTRICITY":"0.00014050","TIME_SYSTEM":"UTC","MEAN_MOTION_DDOT":"0.0000000000000","MEAN_ANOMALY":"281.6191","EPHEMERIS_TYPE":"0","TLE_LINE1":"1 46699U 20073AF  22208.82326040  .00004413  00000-0  31490-3 0  9997","PERIOD":"95.592","RCS_SIZE":"LARGE","MEAN_MOTION":"15.06407731","ARG_OF_PERICENTER":"78.4956","ELEMENT_SET_NO":"999","REF_FRAME":"TEME","RA_OF_ASC_NODE":"51.2248","SEMIMAJOR_AXIS":"6925.325","NORAD_CAT_ID":"46699","GP_ID":"208998030","EPOCH":"2022-07-27T19:45:29.698560","MEAN_MOTION_DOT":"0.00004413","OBJECT_ID":"2020-073AF","SITE":"AFETR","DECAY_DATE":null,"REV_AT_EPOCH":"9804","MEAN_ELEMENT_THEORY":"SGP4","BSTAR":"0.00031490000000"},{"ARG_OF_PERICENTER":"77.5604","RCS_SIZE":"LARGE","MEAN_MOTION":"15.06388456","TLE_LINE1":"1 46700U 20073AG  22208.09759336  .00002350  00000-0  17664-3 0  9992","PERIOD":"95.593","EPOCH":"2022-07-27T02:20:32.066304","MEAN_MOTION_DOT":"0.00002350","OBJECT_ID":"2020-073AG","SITE":"AFETR","DECAY_DATE":null,"MEAN_ELEMENT_THEORY":"SGP4","BSTAR":"0.00017664000000","REV_AT_EPOCH":"9772","REF_FRAME":"TEME","ELEMENT_SET_NO":"999","SEMIMAJOR_AXIS":"6925.384","RA_OF_ASC_NODE":"69.4820","NORAD_CAT_ID":"46700","GP_ID":"208967254","PERIAPSIS":"546.136","OBJECT_TYPE":"PAYLOAD","COUNTRY_CODE":"US","CLASSIFICATION_TYPE":"U","OBJECT_NAME":"STARLINK-1800","APOAPSIS":"548.362","INCLINATION":"53.0560","FILE":"3523109","ECCENTRICITY":"0.00016070","TLE_LINE2":"2 46700  53.0560  69.4820 0001607  77.5604 282.5564 15.06388456 97723","MEAN_MOTION_DDOT":"0.0000000000000","TIME_SYSTEM":"UTC","MEAN_ANOMALY":"282.5564","EPHEMERIS_TYPE":"0","CENTER_NAME":"EARTH","LAUNCH_DATE":"2020-10-18"},{"PERIAPSIS":"546.199","OBJECT_TYPE":"PAYLOAD","COUNTRY_CODE":"US","CLASSIFICATION_TYPE":"U","OBJECT_NAME":"STARLINK-1801","INCLINATION":"53.0535","APOAPSIS":"548.195","FILE":"3523323","MEAN_MOTION_DDOT":"0.0000000000000","TIME_SYSTEM":"UTC","ECCENTRICITY":"0.00014410","TLE_LINE2":"2 46701  53.0535  51.0695 0001441  83.7535 276.3618 15.06405486 98052","EPHEMERIS_TYPE":"0","MEAN_ANOMALY":"276.3618","LAUNCH_DATE":"2020-10-18","CENTER_NAME":"EARTH","RCS_SIZE":"LARGE","ARG_OF_PERICENTER":"83.7535","MEAN_MOTION":"15.06405486","TLE_LINE1":"1 46701U 20073AH  22208.86012088  .00001701  00000-0  13303-3 0  9999","PERIOD":"95.592","SITE":"AFETR","EPOCH":"2022-07-27T20:38:34.444032","MEAN_MOTION_DOT":"0.00001701","OBJECT_ID":"2020-073AH","BSTAR":"0.00013303000000","MEAN_ELEMENT_THEORY":"SGP4","REV_AT_EPOCH":"9805","DECAY_DATE":null,"SEMIMAJOR_AXIS":"6925.332","RA_OF_ASC_NODE":"51.0695","REF_FRAME":"TEME","ELEMENT_SET_NO":"999","NORAD_CAT_ID":"46701","GP_ID":"208999032"}];
